STARLINK-1765
1 46344U 20062V   26090.66388148  .01641388  22239-2  13104-2 0  9994
2 46344  53.0296 188.4171 0011078 330.1905  29.8498 16.14189315308871
